GLOBALSTAR M063         
1 26081U 00008A   25237.87251951 -.00000081  00000+0  24975-4 0  9992
2 26081  51.9954 288.0490 0004752  93.3391  76.5165 11.86175247165845
GLOBALSTAR M062         
1 26082U 00008B   25237.75781529 -.00000084  00000+0  10186-3 0  9990
2 26082  51.9825 251.1973 0007087 259.7409 272.2690 12.43470885505275
GLOBALSTAR M060         
1 26083U 00008C   25237.25109571 -.00000035  00000+0  55502-3 0  9994
2 26083  51.9993 222.4643 0003282 268.6272 104.2811 12.17665431160783
GLOBALSTAR M064         
1 26084U 00008D   25237.69376252 -.00000103  00000+0 -28880-3 0  9991
2 26084  52.0054  26.5236 0001613 160.8759 199.2135 11.88535547175368
GLOBALSTAR M065         
1 31571U 07020A   25237.78300777 -.00000119  00000+0 -83821-4 0  9992
2 31571  51.9919  14.4383 0010824 102.4208  47.9341 12.62010271842192
GLOBALSTAR M069         
1 31573U 07020C   25237.68260078 -.00000084  00000+0  80970-4 0  9994
2 31573  52.0062   8.5127 0000745 244.1434 129.0942 12.23461004842630
GLOBALSTAR M072         
1 31574U 07020D   25237.96864150 -.00000075  00000+0  12642-3 0  9997
2 31574  51.9921 166.1947 0001400  80.8828 357.7682 11.91651099839787
GLOBALSTAR M071         
1 31576U 07020F   25237.69293300 -.00000145  00000+0 -53169-3 0  9990
2 31576  52.0077  36.0617 0000359 164.1784 208.7471 12.18257111503417
